EUTELSAT 8 WEST B       
1 40875U 15039B   25253.15898369 -.00000068  00000+0  00000+0 0  9991
2 40875   0.0668 356.3928 0003698 174.0585 228.2243  1.00272019 36844
EUTELSAT 9B             
1 41310U 16005A   25253.16236370  .00000060  00000+0  00000+0 0  9990
2 41310   0.0418  69.0308 0002235 138.0693 209.7856  1.00271336 35303
EUTELSAT 65 WEST A      
1 41382U 16014A   25253.14763030 -.00000278  00000+0  00000+0 0  9997
2 41382   0.0667  33.0724 0002304 144.6154 159.6684  1.00268106 34721
EUTELSAT 117 WEST B     
1 41589U 16038B   25253.06602118 -.00000014  00000+0  00000+0 0  9990
2 41589   0.0190 314.9048 0000215 104.6147 196.6069  1.00271621 33855
EUTELSAT 172B           
1 42741U 17029B   25252.90925101 -.00000008  00000+0  00000+0 0  9997
2 42741   0.0167 162.1406 0000113 265.6773  60.7131  1.00271320 30923
EUTELSAT 7C             
1 44334U 19034B   25252.80523650  .00000046  00000+0  00000+0 0  9998
2 44334   0.0724 185.1548 0003195 331.1185 129.6918  1.00270771  4022
EUTELSAT 5 WEST B       
1 44624U 19067A   25253.15959036 -.00000044  00000+0  00000+0 0  9995
2 44624   0.0897 315.1662 0003201 221.1815 225.5618  1.00272571 21621
EUTELSAT KONNECT        
1 45027U 20005B   25253.01930766  .00000048  00000+0  00000+0 0  9994
2 45027   0.0622 101.7531 0001830  72.4966 189.2072  1.00271643 21516
